H1 CPF  1  DGF 2022 04 04 09  5941 larets     NONE      
H2   304206 5557    27944 2022 03 29 00 00 00 2022 04 05 00 00 00    30 1 1  0 0 0
H5  0.0650
H9
10 0 59668  54000.000000  0       6458932.076      -1232247.734       2548292.668
10 0 59668  54030.000000  0       6525757.126      -1294943.183       2339093.713
10 0 59668  54060.000000  0       6585663.114      -1356596.862       2127494.666
10 0 59668  54090.000000  0       6638593.706      -1417115.557       1913712.617
10 0 59668  54120.000000  0       6684500.165      -1476406.994       1697966.928
10 0 59668  54150.000000  0       6723341.408      -1534379.975       1480479.001
10 0 59668  54180.000000  0       6755084.038      -1590944.504       1261472.044
10 0 59668  54210.000000  0       6779702.387      -1646011.917       1041170.835
10 0 59668  54240.000000  0       6797178.534      -1699495.014        819801.474
10 0 59668  54270.000000  0       6807502.318      -1751308.181        597591.141
10 0 59668  54300.000000  0       6810671.335      -1801367.516        374767.849
10 0 59668  54330.000000  0       6806690.931      -1849590.941        151560.201
10 0 59668  54360.000000  0       6795574.184      -1895898.325        -71802.849
10 0 59668  54390.000000  0       6777341.881      -1940211.602       -295092.243
10 0 59668  54420.000000  0       6752022.481      -1982454.879       -518079.060
10 0 59668  54450.000000  0       6719652.082      -2022554.556       -740534.764
10 0 59668  54480.000000  0       6680274.355      -2060439.432       -962231.448
10 0 59668  54510.000000  0       6633940.491      -2096040.808      -1182942.076
10 0 59668  54540.000000  0       6580709.123      -2129292.594      -1402440.730
10 0 59668  54570.000000  0       6520646.248      -2160131.403      -1620502.838
10 0 59668  54600.000000  0       6453825.138      -2188496.648      -1836905.423
10 0 59668  54630.000000  0       6380326.239      -2214330.633      -2051427.327
10 0 59668  54660.000000  0       6300237.072      -2237578.641      -2263849.450
10 0 59668  54690.000000  0       6213652.114      -2258189.020      -2473954.973
10 0 59668  54720.000000  0       6120672.680      -2276113.256      -2681529.588
10 0 59668  54750.000000  0       6021406.792      -2291306.059      -2886361.718
10 0 59668  54780.000000  0       5915969.043      -2303725.424      -3088242.732
10 0 59668  54810.000000  0       5804480.456      -2313332.706      -3286967.161
10 0 59668  54840.000000  0       5687068.336      -2320092.681      -3482332.909
10 0 59668  54870.000000  0       5563866.113      -2323973.604      -3674141.456
10 0 59668  54900.000000  0       5435013.179      -2324947.264      -3862198.062
10 0 59668  54930.000000  0       5300654.721      -2322989.032      -4046311.964
10 0 59668  54960.000000  0       5160941.547      -2318077.912      -4226296.564
10 0 59668  54990.000000  0       5016029.901      -2310196.576      -4401969.619
10 0 59668  55020.000000  0       4866081.283      -2299331.401      -4573153.424
10 0 59668  55050.000000  0       4711262.251      -2285472.505      -4739674.979
10 0 59668  55080.000000  0       4551744.231      -2268613.769      -4901366.165
10 0 59668  55110.000000  0       4387703.309      -2248752.861      -5058063.904
10 0 59668  55140.000000  0       4219320.032      -2225891.253      -5209610.313
10 0 59668  55170.000000  0       4046779.199      -2200034.232      -5355852.856
10 0 59668  55200.000000  0       3870269.650      -2171190.910      -5496644.484
10 0 59668  55230.000000  0       3689984.053      -2139374.225      -5631843.777
10 0 59668  55260.000000  0       3506118.690      -2104600.943      -5761315.073
10 0 59668  55290.000000  0       3318873.239      -2066891.649      -5884928.593
10 0 59668  55320.000000  0       3128450.551      -2026270.733      -6002560.564
10 0 59668  55350.000000  0       2935056.435      -1982766.386      -6114093.334
10 0 59668  55380.000000  0       2738899.424      -1936410.569      -6219415.480
10 0 59668  55410.000000  0       2540190.553      -1887238.999      -6318421.914
10 0 59668  55440.000000  0       2339143.123      -1835291.112      -6411013.977
10 0 59668  55470.000000  0       2135972.470      -1780610.033      -6497099.524
10 0 59668  55500.000000  0       1930895.733      -1723242.536      -6576593.005
10 0 59668  55530.000000  0       1724131.626      -1663239.001      -6649415.536
10 0 59668  55560.000000  0       1515900.199      -1600653.374      -6715494.969
10 0 59668  55590.000000  0       1306422.614      -1535543.112      -6774765.949
10 0 59668  55620.000000  0       1095920.911      -1467969.134      -6827169.976
10 0 59668  55650.000000  0        884617.775      -1397995.762      -6872655.452
10 0 59668  55680.000000  0        672736.300      -1325690.656      -6911177.725
10 0 59668  55710.000000  0        460499.759      -1251124.752      -6942699.126
10 0 59668  55740.000000  0        248131.375      -1174372.183      -6967188.990
10 0 59668  55770.000000  0         35854.089      -1095510.218      -6984623.688
10 0 59668  55800.000000  0       -176109.661      -1014619.175      -6994986.637
10 0 59668  55830.000000  0       -387538.173       -931782.349      -6998268.322
10 0 59668  55860.000000  0       -598210.706       -847085.919      -6994466.296
10 0 59668  55890.000000  0       -807907.711       -760618.868      -6983585.182
10 0 59668  55920.000000  0      -1016411.048       -672472.882      -6965636.663
10 0 59668  55950.000000  0      -1223504.212       -582742.256      -6940639.465
10 0 59668  55980.000000  0      -1428972.552       -491523.798      -6908619.340
10 0 59668  56010.000000  0      -1632603.483       -398916.721      -6869609.036
10 0 59668  56040.000000  0      -1834186.707       -305022.545      -6823648.264
10 0 59668  56070.000000  0      -2033514.418       -209944.986      -6770783.659
10 0 59668  56100.000000  0      -2230381.513       -113789.844      -6711068.736
10 0 59668  56130.000000  0      -2424585.795        -16664.891      -6644563.838
10 0 59668  56160.000000  0      -2615928.175         81320.249      -6571336.084
10 0 59668  56190.000000  0      -2804212.875        180054.216      -6491459.303
10 0 59668  56220.000000  0      -2989247.623        279424.041      -6405013.972
10 0 59668  56250.000000  0      -3170843.845        379315.267      -6312087.139
10 0 59668  56280.000000  0      -3348816.864        479612.083      -6212772.346
10 0 59668  56310.000000  0      -3522986.082        580197.447      -6107169.539
10 0 59668  56340.000000  0      -3693175.166        680953.221      -5995384.974
10 0 59668  56370.000000  0      -3859212.225        781760.306      -5877531.113
10 0 59668  56400.000000  0      -4020929.984        882498.776      -5753726.526
10 0 59668  56430.000000  0      -4178165.946        983048.012      -5624095.778
10 0 59668  56460.000000  0      -4330762.567       1083286.849      -5488769.318
10 0 59668  56490.000000  0      -4478567.414       1183093.714      -5347883.357
10 0 59668  56520.000000  0      -4621433.323       1282346.775      -5201579.742
10 0 59668  56550.000000  0      -4759218.554       1380924.085      -5050005.816
10 0 59668  56580.000000  0      -4891786.933       1478703.727      -4893314.277
10 0 59668  56610.000000  0      -5019007.992       1575563.964      -4731663.032
10 0 59668  56640.000000  0      -5140757.097       1671383.385      -4565215.044
10 0 59668  56670.000000  0      -5256915.582       1766041.050      -4394138.177
10 0 59668  56700.000000  0      -5367370.863       1859416.641      -4218605.033
10 0 59668  56730.000000  0      -5472016.562       1951390.608      -4038792.785
10 0 59668  56760.000000  0      -5570752.609       2041844.321      -3854883.010
10 0 59668  56790.000000  0      -5663485.350       2130660.216      -3667061.503
10 0 59668  56820.000000  0      -5750127.642       2217721.944      -3475518.103
10 0 59668  56850.000000  0      -5830598.944       2302914.520      -3280446.501
10 0 59668  56880.000000  0      -5904825.395       2386124.469      -3082044.051
10 0 59668  56910.000000  0      -5972739.896       2467239.971      -2880511.570
10 0 59668  56940.000000  0      -6034282.171       2546151.012      -2676053.141
10 0 59668  56970.000000  0      -6089398.831       2622749.521      -2468875.909
10 0 59668  57000.000000  0      -6138043.428       2696929.518      -2259189.871
10 0 59668  57030.000000  0      -6180176.498       2768587.251      -2047207.665
10 0 59668  57060.000000  0      -6215765.601       2837621.339      -1833144.352
10 0 59668  57090.000000  0      -6244785.349       2903932.906      -1617217.199
10 0 59668  57120.000000  0      -6267217.426       2967425.718      -1399645.458
10 0 59668  57150.000000  0      -6283050.604       3028006.310      -1180650.141
10 0 59668  57180.000000  0      -6292280.747       3085584.122       -960453.794
10 0 59668  57210.000000  0      -6294910.815       3140071.622       -739280.270
10 0 59668  57240.000000  0      -6290950.845       3191384.427       -517354.490
10 0 59668  57270.000000  0      -6280417.937       3239441.426       -294902.213
10 0 59668  57300.000000  0      -6263336.224       3284164.888        -72149.807
10 0 59668  57330.000000  0      -6239736.840       3325480.583        150675.993
10 0 59668  57360.000000  0      -6209657.870       3363317.884        373348.317
10 0 59668  57390.000000  0      -6173144.300       3397609.876        595640.400
10 0 59668  57420.000000  0      -6130247.955       3428293.453        817325.811
10 0 59668  57450.000000  0      -6081027.434       3455309.416       1038178.687
10 0 59668  57480.000000  0      -6025548.035       3478602.563       1257973.976
10 0 59668  57510.000000  0      -5963881.672       3498121.777       1476487.665
10 0 59668  57540.000000  0      -5896106.782       3513820.106       1693497.021
10 0 59668  57570.000000  0      -5822308.226       3525654.839       1908780.813
99
